OBJECT_NAME,OBJECT_ID,EPOCH,MEAN_MOTION,ECCENTRICITY,INCLINATION,RA_OF_ASC_NODE,ARG_OF_PERICENTER,MEAN_ANOMALY,EPHEMERIS_TYPE,CLASSIFICATION_TYPE,NORAD_CAT_ID,ELEMENT_SET_NO,REV_AT_EPOCH,BSTAR,MEAN_MOTION_DOT,MEAN_MOTION_DDOT
COSMOS 2058,1990-010A,2026-07-04T12:57:25.072992,15.12122284,.00082578,82.4686,292.2429,294.4792,65.5577,0,U,20465,999,95989,.25059819E-3,.4347E-4,0
SL-14 R/B,1990-010B,2026-07-04T21:43:40.013472,14.83658769,.00181753,82.5025,157.3050,274.0298,85.8840,0,U,20466,999,94586,.59202308E-4,.513E-5,0
SL-14 R/B,1990-018B,2026-07-05T05:43:29.454240,14.82229805,.00175845,82.5221,113.2365,67.3053,293.0019,0,U,20511,999,93999,.66773776E-4,.557E-5,0
HST,1990-037B,2026-07-04T17:52:45.103008,15.30968798,.0001726,28.4738,320.5598,359.9389,0.1206,0,U,20580,999,79126,.33264073E-3,.10489E-3,0
SL-16 R/B,1990-046B,2026-07-05T01:04:58.181376,14.15023615,.00124828,70.9988,51.4436,132.3197,227.8985,0,U,20625,999,86499,-.61979193E-4,-.168E-5,0
COSMOS 2084,1990-055A,2026-07-05T02:53:06.010944,15.06197626,.0006885,62.7910,294.8797,307.4783,52.5691,0,U,20663,999,95400,.23093373E-3,.3202E-4,0
SL-6 R/B(2),1990-055D,2026-07-05T01:36:32.729472,15.04061964,.00435426,62.7800,214.5304,7.5692,352.6055,0,U,20666,999,95584,.16466494E-3,.2129E-4,0
SL-8 R/B,1990-078B,2026-07-04T14:57:01.236672,14.93222715,.03456988,82.9025,145.8805,339.5280,19.2356,0,U,20775,999,82672,.10138415E-2,.35826E-3,0
SL-8 R/B,1991-006B,2026-07-04T10:42:16.739712,13.77507798,.00238204,82.9420,83.1946,69.0483,104.7141,0,U,21088,999,78014,.82170703E-4,.97E-6,0
OKEAN-3,1991-039A,2026-07-05T03:39:12.255552,15.05405569,.00120603,82.5141,222.9600,291.8699,68.1245,0,U,21397,999,88270,.21460477E-3,.3109E-4,0
COSMOS 2151,1991-042A,2026-07-04T20:46:09.255360,15.00491463,.00129739,82.4977,330.6190,29.8801,330.3161,0,U,21422,999,88076,.1935201E-3,.2467E-4,0
SL-14 R/B,1991-042B,2026-07-05T04:21:10.279008,14.81914438,.0016107,82.4936,110.0222,210.5226,149.5053,0,U,21423,999,87047,.58567665E-4,.488E-5,0
ERS-1,1991-050A,2026-07-05T02:20:43.227456,14.39528596,.00312719,98.7794,207.2332,212.0543,147.8743,0,U,21574,999,83262,.10667276E-3,.288E-5,0
ARIANE 40 R/B,1991-050F,2026-07-05T01:52:23.711808,14.42968327,.00044206,98.1865,233.7973,83.1700,276.9993,0,U,21610,999,83592,.12977364E-3,.393E-5,0
INTERCOSMOS 25,1991-086A,2026-07-04T14:38:33.503136,12.12225175,.14840809,82.6025,239.2665,224.7723,122.3819,0,U,21819,999,51085,.25563822E-3,.1291E-4,0
SL-8 R/B,1992-008B,2026-07-05T00:09:16.840224,13.75981666,.00350271,82.9261,180.5383,164.5656,218.6248,0,U,21876,999,72555,.15021495E-3,.162E-5,0
SL-8 R/B,1992-020B,2026-07-05T02:41:05.695872,13.75550270,.00284878,82.9295,66.5427,332.6623,179.9340,0,U,21938,999,71727,.28674256E-4,.43E-6,0
USA 81,1992-023A,2026-07-05T02:06:57.461184,14.32403240,.00024021,85.0061,63.6749,70.0141,290.1311,0,U,21949,999,11159,.68728354E-4,.206E-5,0
COSMOS 2219,1992-076A,2026-07-04T14:12:27.887616,14.14109845,.00175637,71.0610,133.6876,14.6486,345.5141,0,U,22219,999,73490,.7832787E-4,.102E-5,0
SL-16 R/B,1992-076B,2026-07-04T18:28:28.350048,14.16874174,.00150303,71.0012,301.7423,275.5810,245.1415,0,U,22220,999,73841,-.4423139E-5,-.57E-6,0
COSMOS 2221,1992-080A,2026-07-04T15:45:52.562304,14.96584376,.00148957,82.5035,167.0266,153.0427,207.1572,0,U,22236,999,79828,.19309423E-3,.2228E-4,0
SL-16 R/B,1992-093B,2026-07-05T04:37:11.298432,14.15466153,.00028885,71.0221,117.5933,155.3980,204.7282,0,U,22285,999,72978,.12869327E-3,.204E-5,0
COSMOS 2228,1992-094A,2026-07-05T06:16:09.017472,14.97655445,.00159572,82.5188,124.7309,265.8588,94.0811,0,U,22286,999,79365,.22532816E-3,.2668E-4,0
SL-16 R/B,1993-016B,2026-07-04T19:42:18.768384,14.15312874,.00091608,71.0087,329.1694,156.5727,203.5815,0,U,22566,999,71874,-.10132725E-3,-.245E-5,0
COSMOS 2242,1993-024A,2026-07-04T21:28:24.871584,14.96963026,.00143915,82.5190,154.6011,271.4031,88.5543,0,U,22626,999,79792,.19862988E-3,.2312E-4,0
SL-16 R/B,1993-059B,2026-07-04T13:41:18.060288,14.17250875,.00160816,70.9903,124.6460,25.3207,334.8701,0,U,22803,999,69609,.12272134E-3,.2E-5,0
ARIANE 40 R/B,1993-061H,2026-07-05T03:37:43.229856,14.32915927,.0009545,98.4810,252.6345,299.3725,60.6506,0,U,22830,999,71092,.11758001E-3,.278E-5,0
COSMOS 2278,1994-023A,2026-07-05T05:03:05.495328,14.14395653,.00101086,71.0543,289.2165,220.7178,139.3190,0,U,23087,999,66142,-.85421202E-4,-.211E-5,0
SL-16 R/B,1994-023B,2026-07-04T23:48:39.790080,14.15025490,.00016632,70.9977,184.5393,163.1128,197.0050,0,U,23088,999,66268,-.87458798E-4,-.217E-5,0
SL-16 R/B,1994-074B,2026-07-05T01:30:27.527040,14.79518732,.00062678,97.6985,212.0384,185.9207,198.9903,0,U,23343,999,70460,.83831271E-4,.578E-5,0
