COSMOS 2058             
1 20465U 90010A   26185.53987353  .00004347  00000+0  25060-3 0  9995
2 20465  82.4686 292.2429 0008257 294.4792  65.5577 15.12122284959895
SL-14 R/B               
1 20466U 90010B   26185.90532423  .00000513  00000+0  59202-4 0  9998
2 20466  82.5025 157.3050 0018175 274.0298  85.8840 14.83658769945869
SL-14 R/B               
1 20511U 90018B   26186.23853535  .00000557  00000+0  66774-4 0  9994
2 20511  82.5221 113.2365 0017584  67.3053 293.0019 14.82229805939995
HST                     
1 20580U 90037B   26185.74496647  .00010489  00000+0  33264-3 0  9995
2 20580  28.4738 320.5598 0001726 359.9389   0.1206 15.30968798791263
SL-16 R/B               
1 20625U 90046B   26186.04511784 -.00000168  00000+0 -61979-4 0  9999
2 20625  70.9988  51.4436 0012482 132.3197 227.8985 14.15023615864999
COSMOS 2084             
1 20663U 90055A   26186.12020846  .00003202  00000+0  23093-3 0  9998
2 20663  62.7910 294.8797 0006885 307.4783  52.5691 15.06197626954008
SL-6 R/B(2)             
1 20666U 90055D   26186.06704548  .00002129  00000+0  16466-3 0  9995
2 20666  62.7800 214.5304 0043542   7.5692 352.6055 15.04061964955844
SL-8 R/B                
1 20775U 90078B   26185.62293098  .00035826  00000+0  10138-2 0  9994
2 20775  82.9025 145.8805 0345698 339.5280  19.2356 14.93222715826722
SL-8 R/B                
1 21088U 91006B   26185.44602708  .00000097  00000+0  82171-4 0  9996
2 21088  82.9420  83.1946 0023820  69.0483 104.7141 13.77507798780144
OKEAN-3                 
1 21397U 91039A   26186.15222518  .00003109  00000+0  21460-3 0  9991
2 21397  82.5141 222.9600 0012060 291.8699  68.1245 15.05405569882700
COSMOS 2151             
1 21422U 91042A   26185.86538490  .00002467  00000+0  19352-3 0  9993
2 21422  82.4977 330.6190 0012973  29.8801 330.3161 15.00491463880761
SL-14 R/B               
1 21423U 91042B   26186.18136897  .00000488  00000+0  58568-4 0  9999
2 21423  82.4936 110.0222 0016107 210.5226 149.5053 14.81914438870473
ERS-1                   
1 21574U 91050A   26186.09772254  .00000288  00000+0  10667-3 0  9993
2 21574  98.7794 207.2332 0031271 212.0543 147.8743 14.39528596832622
ARIANE 40 R/B           
1 21610U 91050F   26186.07805222  .00000393  00000+0  12977-3 0  9997
2 21610  98.1865 233.7973 0004420  83.1700 276.9993 14.42968327835920
INTERCOSMOS 25          
1 21819U 91086A   26185.61010999  .00001291  00000+0  25564-3 0  9999
2 21819  82.6025 239.2665 1484080 224.7723 122.3819 12.12225175510854
SL-8 R/B                
1 21876U 92008B   26186.00644491  .00000162  00000+0  15021-3 0  9994
2 21876  82.9261 180.5383 0035027 164.5656 218.6248 13.75981666725559
SL-8 R/B                
1 21938U 92020B   26186.11187148  .00000043  00000+0  28674-4 0  9997
2 21938  82.9295  66.5427 0028487 332.6623 179.9340 13.75550270717276
USA 81                  
1 21949U 92023A   26186.08816506  .00000206  00000+0  68728-4 0  9990
2 21949  85.0061  63.6749 0002402  70.0141 290.1311 14.32403240111590
COSMOS 2219             
1 22219U 92076A   26185.59198944  .00000102  00000+0  78328-4 0  9995
2 22219  71.0610 133.6876 0017563  14.6486 345.5141 14.14109845734901
SL-16 R/B               
1 22220U 92076B   26185.76977257 -.00000057  00000+0 -44231-5 0  9996
2 22220  71.0012 301.7423 0015030 275.5810 245.1415 14.16874174738416
COSMOS 2221             
1 22236U 92080A   26185.65685836  .00002228  00000+0  19309-3 0  9991
2 22236  82.5035 167.0266 0014895 153.0427 207.1572 14.96584376798288
SL-16 R/B               
1 22285U 92093B   26186.19249188  .00000204  00000+0  12869-3 0  9991
2 22285  71.0221 117.5933 0002888 155.3980 204.7282 14.15466153729784
COSMOS 2228             
1 22286U 92094A   26186.26121548  .00002668  00000+0  22533-3 0  9995
2 22286  82.5188 124.7309 0015957 265.8588  94.0811 14.97655445793652
SL-16 R/B               
1 22566U 93016B   26185.82105056 -.00000245  00000+0 -10133-3 0  9992
2 22566  71.0087 329.1694 0009160 156.5727 203.5815 14.15312874718746
COSMOS 2242             
1 22626U 93024A   26185.89473231  .00002312  00000+0  19863-3 0  9992
2 22626  82.5190 154.6011 0014391 271.4031  88.5543 14.96963026797922
SL-16 R/B               
1 22803U 93059B   26185.57034792  .00000200  00000+0  12272-3 0  9998
2 22803  70.9903 124.6460 0016081  25.3207 334.8701 14.17250875696099
ARIANE 40 R/B           
1 22830U 93061H   26186.15119479  .00000278  00000+0  11758-3 0  9995
2 22830  98.4810 252.6345 0009545 299.3725  60.6506 14.32915927710929
COSMOS 2278             
1 23087U 94023A   26186.21048027 -.00000211  00000+0 -85421-4 0  9994
2 23087  71.0543 289.2165 0010108 220.7178 139.3190 14.14395653661428
SL-16 R/B               
1 23088U 94023B   26185.99212720 -.00000217  00000+0 -87459-4 0  9991
2 23088  70.9977 184.5393 0001663 163.1128 197.0050 14.15025490662684
SL-16 R/B               
1 23343U 94074B   26186.06281860  .00000578  00000+0  83831-4 0  9999
2 23343  97.6985 212.0384 0006267 185.9207 198.9903 14.79518732704607
